[{"OBJECT_NAME":"YAOGAN-36 03C","OBJECT_ID":"2022-160E","EPOCH":"2026-03-09T20:06:06.577632","MEAN_MOTION":15.22991504,"ECCENTRICITY":0.00114517,"INCLINATION":35.0077,"RA_OF_ASC_NODE":244.2786,"ARG_OF_PERICENTER":217.8015,"MEAN_ANOMALY":142.1896,"EPHEMERIS_TYPE":0,"CLASSIFICATION_TYPE":"U","NORAD_CAT_ID":54376,"ELEMENT_SET_NO":999,"REV_AT_EPOCH":18289,"BSTAR":-5.118835e-6,"MEAN_MOTION_DOT":-1.61e-6,"MEAN_MOTION_DDOT":0},{"OBJECT_NAME":"CZ-6A DEB","OBJECT_ID":"2022-151BX","EPOCH":"2026-03-09T18:04:18.424992","MEAN_MOTION":15.16566225,"ECCENTRICITY":0.00404449,"INCLINATION":98.6231,"RA_OF_ASC_NODE":169.9483,"ARG_OF_PERICENTER":104.1368,"MEAN_ANOMALY":256.4361,"EPHEMERIS_TYPE":0,"CLASSIFICATION_TYPE":"U","NORAD_CAT_ID":54328,"ELEMENT_SET_NO":999,"REV_AT_EPOCH":10563,"BSTAR":0.0050960293,"MEAN_MOTION_DOT":0.00102794,"MEAN_MOTION_DDOT":0}]
